0 STARLINK-37517
1 69254U 26117S   26178.96493885 -.00570167  00000-0 -52236-2 0  9997
2 69254  53.1593 189.2759 0003903 356.1502   3.9485 15.68790350  4683
0 STARLINK-37665
1 69238U 26117A   26178.91668981 -.02427549  00000-0 -26844-1 0  9997
2 69238  53.1588 189.9536 0001351 105.1090 130.4822 15.65771987  5907
0 STARLINK-37558
1 69239U 26117B   26178.91668981 -.02314900  00000-0 -21935-1 0  9990
2 69239  53.1588 189.8777 0001184 111.9656 160.5738 15.69942898  5906
0 STARLINK-37680
1 69240U 26117C   26178.91668981 -.02499735  00000-0 -22586-1 0  9995
2 69240  53.1587 189.8473 0001029 110.4822 176.8955 15.70750616  5893
0 STARLINK-37742
1 69241U 26117D   26178.91668981 -.02488045  00000-0 -23608-1 0  9994
2 69241  53.1589 189.8439 0000913  92.9934 196.1526 15.69574484  5903
0 STARLINK-37718
1 69242U 26117E   26178.91668981 -.02475496  00000-0 -23828-1 0  9995
2 69242  53.1590 189.8301 0000865  92.5532 203.4187 15.69215605  5890
0 STARLINK-37735
1 69243U 26117F   26178.91668981 -.00766605  00000-0 -85616-2 0  9993
2 69243  53.1588 189.9535 0001029  93.5626 141.4321 15.64538124  5908
0 STARLINK-37757
1 69244U 26117G   26178.91668981 -.02548571  00000-0 -27256-1 0  9991
2 69244  53.1587 189.8519 0001063 113.8874 170.9315 15.66773566  5901
0 STARLINK-37767
1 69245U 26117H   26178.91668981 -.02495673  00000-0 -24042-1 0  9996
2 69245  53.1590 189.7743 0000784  94.9373 227.5916 15.69224792  5907
0 STARLINK-35759
1 69246U 26117J   26178.91668981 -.02559557  00000-0 -26569-1 0  9995
2 69246  53.1591 189.7550 0000741  91.3594 240.1418 15.67519155  5955
0 STARLINK-37238
1 69247U 26117K   26178.91668981 -.02461584  00000-0 -41360-1 0  9994
2 69247  53.1592 190.0527 0001396  84.7919  99.2847 15.55049558  5906
0 STARLINK-37412
1 69248U 26117L   26178.91668981 -.02480905  00000-0 -26261-1 0  9996
2 69248  53.1590 189.6799 0000736  86.5196 280.8894 15.66928512  5979
0 STARLINK-37398
1 69249U 26117M   26178.91668981 -.02433201  00000-0 -33687-1 0  9994
2 69249  53.1588 189.9395 0001390 100.0479 139.8572 15.60106614  5976
0 STARLINK-37499
1 69250U 26117N   26178.91668981 -.02523943  00000-0 -32832-1 0  9990
2 69250  53.1590 189.8144 0000929  92.4688 209.0025 15.61852895  5978
0 STARLINK-37489
1 69251U 26117P   26178.91668981 -.02422690  00000-0 -34353-1 0  9998
2 69251  53.1589 189.8656 0001180 107.9152 168.5852 15.59472667  5972
0 STARLINK-37434
1 69252U 26117Q   26178.91668981  .00096099  00000-0  17175-2 0  9999
2 69252  53.1597 190.2475 0001342 105.9422 341.5566 15.49263086  5916
0 STARLINK-37368
1 69253U 26117R   26178.91668981 -.00911846  00000-0 -81866-2 0  9996
2 69253  53.1595 189.4954 0000728  88.3023   8.0754 15.69900221  5976
0 STARLINK-37378
1 69255U 26117T   26178.91668981 -.02227780  00000-0 -23158-1 0  9996
2 69255  53.1598 189.4950 0000454  81.8881  14.4006 15.67578958  5903
0 STARLINK-37396
1 69256U 26117U   26178.91668981 -.02525318  00000-0 -25390-1 0  9995
2 69256  53.1597 189.4470 0001235  81.9220  37.0067 15.68236220  5975
0 STARLINK-37508
1 69257U 26117V   26178.91668981 -.02583056  00000-0 -26498-1 0  9999
2 69257  53.1598 189.5319 0001127  74.1826   2.8743 15.67835393  5905
0 STARLINK-37276
1 69258U 26117W   26178.91668981  .00075029  00000-0  13462-2 0  9990
2 69258  53.1588 190.0003 0001646  66.0717 137.4082 15.49265123  5906
0 STARLINK-37518
1 69259U 26117X   26178.91668981  .00075536  00000-0  13551-2 0  9993
2 69259  53.1589 190.0147 0001750  72.6170 123.9406 15.49265207  5913
0 STARLINK-37478
1 69260U 26117Y   26178.91668981  .00082334  00000-0  14753-2 0  9994
2 69260  53.1586 190.5686 0001732  93.9580 189.5743 15.49261438  5910
0 STARLINK-37506
1 69261U 26117Z   26178.91668981  .00073846  00000-0  13254-2 0  9998
2 69261  53.1596 190.1548 0001237  90.8268  36.7900 15.49264172  5910
0 STARLINK-37503
1 69262U 26117AA  26178.91668981  .00085941  00000-0  15392-2 0  9993
2 69262  53.1583 189.8374 0001048  83.1672 200.2782 15.49256220  5914
0 STARLINK-37502
1 69263U 26117AB  26178.91668981  .00075268  00000-0  13503-2 0  9997
2 69263  53.1591 190.0456 0000710  43.6651 136.7462 15.49268666  5917
0 STARLINK-37486
1 69264U 26117AC  26178.91668981 -.02512507  00000-0 -42651-1 0  9999
2 69264  53.1590 189.7338 0000795  97.3412 237.1340 15.54241569  5915
0 STARLINK-37435
1 69265U 26117AD  26178.91668981 -.02340031  00000-0 -32684-1 0  9996
2 69265  53.1588 189.5029 0000835 101.3861 346.8179 15.59738191  5912
0 STARLINK-37464
1 69266U 26117AE  26178.91668981 -.02488037  00000-0 -32970-1 0  9994
2 69266  53.1591 189.3377 0001302  83.5142  84.8489 15.61319842  5918
0 KUIPER-00282
1 69267U 26118A   26178.90575043  .00037134  00000-0  11246-2 0  9999
2 69267  51.8597   1.9808 0011869 226.2288 133.7715 15.33744044  5623
